{
  "norad_id": 63712,
  "name": "STARLINK-33783",
  "history": [
    {
      "epoch": "2026-03-28T09:56:47.147712",
      "apogee_km": 476.25289906880244,
      "perigee_km": 474.1444018225875,
      "latitude_deg": 46.55717439949827,
      "longitude_deg": -129.0142803201452,
      "semi_major_axis_km": 6853.335650445695,
      "eccentricity": 0.00015383,
      "inclination_deg": 53.1596,
      "raan_deg": 132.7825,
      "arg_perigee_deg": 97.5151,
      "mean_anomaly_deg": 262.6025,
      "mean_motion_rev_day": 15.30205499
    }
  ]
}