{"fetched_at":"2026-03-30T09:12:31Z","count":15922,"tles":[{"name":"STARLINK-33783","line1":"1 63712U 25087R   26087.41443458  .00008740  00000+0  30680-3 0  9995","line2":"2 63712  53.1596 132.7825 0001538  97.5151 262.6025 15.30205499 52067","category":"Starlink"}]}